start=new Date('2022-09-01T00:00:00.000Z').valueOf();
sats=[{"APOAPSIS":"548.366","SEMIMAJOR_AXIS":"6925.360","ARG_OF_PERICENTER":"68.0736","OBJECT_ID":"2021-017U","PERIOD":"95.592","OBJECT_TYPE":"PAYLOAD","CLASSIFICATION_TYPE":"U","SITE":"AFETR","MEAN_ANOMALY":"292.0428","ELEMENT_SET_NO":"999","ECCENTRICITY":"0.00016470","REV_AT_EPOCH":"8389","OBJECT_NAME":"STARLINK-2152","PERIAPSIS":"546.085","DECAY_DATE":null,"TIME_SYSTEM":"UTC","COUNTRY_CODE":"US","MEAN_MOTION_DOT":"-0.00000150","BSTAR":"0.00000882860000","TLE_LINE2":"2 47740  53.0542 226.2191 0001647  68.0736 292.0428 15.06396164 83890","INCLINATION":"53.0542","LAUNCH_DATE":"2021-03-04","MEAN_MOTION":"15.06396164","NORAD_CAT_ID":"47740","CENTER_NAME":"EARTH","REF_FRAME":"TEME","MEAN_MOTION_DDOT":"0.0000000000000","TLE_LINE1":"1 47740U 21017U   22243.35222049 -.00000150  00000-0  88286-5 0  9997","EPHEMERIS_TYPE":"0","RCS_SIZE":"LARGE","EPOCH":"2022-08-31T08:27:11.850336","GP_ID":"211393419","MEAN_ELEMENT_THEORY":"SGP4","FILE":"3552511","RA_OF_ASC_NODE":"226.2191"},{"REF_FRAME":"TEME","MEAN_MOTION_DDOT":"0.0000000000000","TLE_LINE1":"1 47741U 21017V   22243.36696511 -.00000344  00000-0 -41959-5 0  9990","EPOCH":"2022-08-31T08:48:25.785504","RCS_SIZE":"LARGE","EPHEMERIS_TYPE":"0","MEAN_MOTION":"15.06391607","CENTER_NAME":"EARTH","NORAD_CAT_ID":"47741","TLE_LINE2":"2 47741  53.0551 226.1563 0001546  82.2452 277.8712 15.06391607 83854","LAUNCH_DATE":"2021-03-04","INCLINATION":"53.0551","BSTAR":"-0.00000419590000","RA_OF_ASC_NODE":"226.1563","FILE":"3552511","GP_ID":"211392167","MEAN_ELEMENT_THEORY":"SGP4","PERIOD":"95.593","OBJECT_TYPE":"PAYLOAD","ARG_OF_PERICENTER":"82.2452","OBJECT_ID":"2021-017V","SEMIMAJOR_AXIS":"6925.374","APOAPSIS":"548.310","COUNTRY_CODE":"US","MEAN_MOTION_DOT":"-0.00000344","OBJECT_NAME":"STARLINK-2154","PERIAPSIS":"546.169","DECAY_DATE":null,"TIME_SYSTEM":"UTC","MEAN_ANOMALY":"277.8712","ELEMENT_SET_NO":"999","REV_AT_EPOCH":"8385","ECCENTRICITY":"0.00015460","CLASSIFICATION_TYPE":"U","SITE":"AFETR"},{"PERIAPSIS":"546.181","OBJECT_NAME":"STARLINK-2156","DECAY_DATE":null,"TIME_SYSTEM":"UTC","COUNTRY_CODE":"US","MEAN_MOTION_DOT":"-0.00001443","CLASSIFICATION_TYPE":"U","SITE":"AFETR","MEAN_ANOMALY":"283.0421","ELEMENT_SET_NO":"999","ECCENTRICITY":"0.00015280","REV_AT_EPOCH":"8403","OBJECT_ID":"2021-017W","ARG_OF_PERICENTER":"77.0739","PERIOD":"95.593","OBJECT_TYPE":"PAYLOAD","APOAPSIS":"548.297","SEMIMAJOR_AXIS":"6925.374","FILE":"3552511","RA_OF_ASC_NODE":"216.3934","GP_ID":"211391917","MEAN_ELEMENT_THEORY":"SGP4","MEAN_MOTION":"15.06391683","NORAD_CAT_ID":"47742","CENTER_NAME":"EARTH","REF_FRAME":"TEME","MEAN_MOTION_DDOT":"0.0000000000000","TLE_LINE1":"1 47742U 21017W   22243.31259955 -.00001443  00000-0 -77980-4 0  9996","RCS_SIZE":"LARGE","EPHEMERIS_TYPE":"0","EPOCH":"2022-08-31T07:30:08.601120","BSTAR":"-0.00007798000000","TLE_LINE2":"2 47742  53.0541 216.3934 0001528  77.0739 283.0421 15.06391683 84038","LAUNCH_DATE":"2021-03-04","INCLINATION":"53.0541"},{"APOAPSIS":"548.374","SEMIMAJOR_AXIS":"6925.373","ARG_OF_PERICENTER":"65.1784","OBJECT_ID":"2021-017X","PERIOD":"95.593","OBJECT_TYPE":"PAYLOAD","CLASSIFICATION_TYPE":"U","SITE":"AFETR","ECCENTRICITY":"0.00016400","ELEMENT_SET_NO":"999","REV_AT_EPOCH":"8399","MEAN_ANOMALY":"294.9376","TIME_SYSTEM":"UTC","PERIAPSIS":"546.103","OBJECT_NAME":"STARLINK-2157","DECAY_DATE":null,"COUNTRY_CODE":"US","MEAN_MOTION_DOT":"-0.00000157","BSTAR":"0.00000833790000","LAUNCH_DATE":"2021-03-04","INCLINATION":"53.0533","TLE_LINE2":"2 47743  53.0533 216.8808 0001640  65.1784 294.9376 15.06391895 83997","NORAD_CAT_ID":"47743","CENTER_NAME":"EARTH","MEAN_MOTION":"15.06391895","TLE_LINE1":"1 47743U 21017X   22243.20570001 -.00000157  00000-0  83379-5 0  9993","RCS_SIZE":"LARGE","EPOCH":"2022-08-31T04:56:12.480864","EPHEMERIS_TYPE":"0","REF_FRAME":"TEME","MEAN_MOTION_DDOT":"0.0000000000000","MEAN_ELEMENT_THEORY":"SGP4","GP_ID":"211393169","FILE":"3552511","RA_OF_ASC_NODE":"216.8808"},{"FILE":"3552511","RA_OF_ASC_NODE":"216.3455","MEAN_ELEMENT_THEORY":"SGP4","GP_ID":"211392919","CENTER_NAME":"EARTH","NORAD_CAT_ID":"47744","MEAN_MOTION":"15.06401771","EPHEMERIS_TYPE":"0","RCS_SIZE":"LARGE","EPOCH":"2022-08-31T07:28:45.596640","TLE_LINE1":"1 47744U 21017Y   22243.31163885  .00000699  00000-0  65804-4 0  9996","MEAN_MOTION_DDOT":"0.0000000000000","REF_FRAME":"TEME","BSTAR":"0.00006580400000","INCLINATION":"53.0535","LAUNCH_DATE":"2021-03-04","TLE_LINE2":"2 47744  53.0535 216.3455 0001726  66.8387 293.2784 15.06401771 84031","TIME_SYSTEM":"UTC","DECAY_DATE":null,"OBJECT_NAME":"STARLINK-2158","PERIAPSIS":"546.013","MEAN_MOTION_DOT":"0.00000699","COUNTRY_CODE":"US","SITE":"AFETR","CLASSIFICATION_TYPE":"U","ELEMENT_SET_NO":"999","ECCENTRICITY":"0.00017260","REV_AT_EPOCH":"8403","MEAN_ANOMALY":"293.2784","OBJECT_ID":"2021-017Y","ARG_OF_PERICENTER":"66.8387","PERIOD":"95.592","OBJECT_TYPE":"PAYLOAD","APOAPSIS":"548.403","SEMIMAJOR_AXIS":"6925.343"},{"FILE":"3552511","RA_OF_ASC_NODE":"226.5313","MEAN_ELEMENT_THEORY":"SGP4","GP_ID":"211391667","NORAD_CAT_ID":"47745","CENTER_NAME":"EARTH","MEAN_MOTION":"15.06390945","EPOCH":"2022-08-31T06:41:02.679936","RCS_SIZE":"LARGE","EPHEMERIS_TYPE":"0","TLE_LINE1":"1 47745U 21017Z   22243.27850324 -.00000604  00000-0 -21677-4 0  9991","REF_FRAME":"TEME","MEAN_MOTION_DDOT":"0.0000000000000","BSTAR":"-0.00002167700000","INCLINATION":"53.0545","LAUNCH_DATE":"2021-03-04","TLE_LINE2":"2 47745  53.0545 226.5313 0001383  76.8635 283.2508 15.06390945 83835","TIME_SYSTEM":"UTC","DECAY_DATE":null,"OBJECT_NAME":"STARLINK-2159","PERIAPSIS":"546.284","MEAN_MOTION_DOT":"-0.00000604","COUNTRY_CODE":"US","SITE":"AFETR","CLASSIFICATION_TYPE":"U","ECCENTRICITY":"0.00013830","ELEMENT_SET_NO":"999","REV_AT_EPOCH":"8383","MEAN_ANOMALY":"283.2508","OBJECT_ID":"2021-017Z","ARG_OF_PERICENTER":"76.8635","OBJECT_TYPE":"PAYLOAD","PERIOD":"95.593","APOAPSIS":"548.199","SEMIMAJOR_AXIS":"6925.376"},{"MEAN_MOTION_DOT":"-0.00000395","COUNTRY_CODE":"US","DECAY_DATE":null,"PERIAPSIS":"546.249","OBJECT_NAME":"STARLINK-2160","TIME_SYSTEM":"UTC","MEAN_ANOMALY":"288.9804","REV_AT_EPOCH":"8383","ECCENTRICITY":"0.00014440","ELEMENT_SET_NO":"999","SITE":"AFETR","CLASSIFICATION_TYPE":"U","OBJECT_TYPE":"PAYLOAD","PERIOD":"95.593","ARG_OF_PERICENTER":"71.1342","OBJECT_ID":"2021-017AA","SEMIMAJOR_AXIS":"6925.384","APOAPSIS":"548.249","RA_OF_ASC_NODE":"226.2885","FILE":"3552511","GP_ID":"211392418","MEAN_ELEMENT_THEORY":"SGP4","MEAN_MOTION_DDOT":"0.0000000000000","REF_FRAME":"TEME","RCS_SIZE":"LARGE","EPHEMERIS_TYPE":"0","EPOCH":"2022-08-31T08:05:58.108704","TLE_LINE1":"1 47746U 21017AA  22243.33747811 -.00000395  00000-0 -76583-5 0  9999","MEAN_MOTION":"15.06388400","CENTER_NAME":"EARTH","NORAD_CAT_ID":"47746","TLE_LINE2":"2 47746  53.0538 226.2885 0001444  71.1342 288.9804 15.06388400 83834","INCLINATION":"53.0538","LAUNCH_DATE":"2021-03-04","BSTAR":"-0.00000765830000"},{"CLASSIFICATION_TYPE":"U","SITE":"AFETR","MEAN_ANOMALY":"295.3689","ELEMENT_SET_NO":"999","REV_AT_EPOCH":"8401","ECCENTRICITY":"0.00015270","OBJECT_NAME":"STARLINK-2161","PERIAPSIS":"546.184","DECAY_DATE":null,"TIME_SYSTEM":"UTC","COUNTRY_CODE":"US","MEAN_MOTION_DOT":"-0.00000160","APOAPSIS":"548.299","SEMIMAJOR_AXIS":"6925.376","OBJECT_ID":"2021-017AB","ARG_OF_PERICENTER":"64.7458","PERIOD":"95.593","OBJECT_TYPE":"PAYLOAD","GP_ID":"211392669","MEAN_ELEMENT_THEORY":"SGP4","FILE":"3552511","RA_OF_ASC_NODE":"216.2832","BSTAR":"0.00000815660000","TLE_LINE2":"2 47747  53.0537 216.2832 0001527  64.7458 295.3689 15.06390923 84010","INCLINATION":"53.0537","LAUNCH_DATE":"2021-03-04","MEAN_MOTION":"15.06390923","CENTER_NAME":"EARTH","NORAD_CAT_ID":"47747","MEAN_MOTION_DDOT":"0.0000000000000","REF_FRAME":"TEME","TLE_LINE1":"1 47747U 21017AB  22243.33471326 -.00000160  00000-0  81566-5 0  9991","RCS_SIZE":"LARGE","EPHEMERIS_TYPE":"0","EPOCH":"2022-08-31T08:01:59.225664"},{"BSTAR":"0.00003212800000","INCLINATION":"53.0536","LAUNCH_DATE":"2021-03-04","TLE_LINE2":"2 47748  53.0536 216.3198 0001906  68.5662 291.5530 15.06397104 83982","CENTER_NAME":"EARTH","NORAD_CAT_ID":"47748","MEAN_MOTION":"15.06397104","TLE_LINE1":"1 47748U 21017AC  22243.32733779  .00000197  00000-0  32128-4 0  9992","EPHEMERIS_TYPE":"0","RCS_SIZE":"LARGE","EPOCH":"2022-08-31T07:51:21.985056","MEAN_MOTION_DDOT":"0.0000000000000","REF_FRAME":"TEME","MEAN_ELEMENT_THEORY":"SGP4","GP_ID":"211393420","FILE":"3552511","RA_OF_ASC_NODE":"216.3198","APOAPSIS":"548.542","SEMIMAJOR_AXIS":"6925.357","OBJECT_ID":"2021-017AC","ARG_OF_PERICENTER":"68.5662","PERIOD":"95.592","OBJECT_TYPE":"PAYLOAD","CLASSIFICATION_TYPE":"U","SITE":"AFETR","ECCENTRICITY":"0.00019060","REV_AT_EPOCH":"8398","ELEMENT_SET_NO":"999","MEAN_ANOMALY":"291.5530","TIME_SYSTEM":"UTC","OBJECT_NAME":"STARLINK-2162","PERIAPSIS":"545.902","DECAY_DATE":null,"COUNTRY_CODE":"US","MEAN_MOTION_DOT":"0.00000197"},{"TIME_SYSTEM":"UTC","PERIAPSIS":"546.126","OBJECT_NAME":"STARLINK-2163","DECAY_DATE":null,"COUNTRY_CODE":"US","MEAN_MOTION_DOT":"0.00000174","CLASSIFICATION_TYPE":"U","SITE":"AFETR","ECCENTRICITY":"0.00015510","ELEMENT_SET_NO":"999","REV_AT_EPOCH":"8398","MEAN_ANOMALY":"287.2628","ARG_OF_PERICENTER":"72.8531","OBJECT_ID":"2021-017AD","OBJECT_TYPE":"PAYLOAD","PERIOD":"95.592","APOAPSIS":"548.274","SEMIMAJOR_AXIS":"6925.335","FILE":"3552511","RA_OF_ASC_NODE":"216.2604","MEAN_ELEMENT_THEORY":"SGP4","GP_ID":"211392168","NORAD_CAT_ID":"47749","CENTER_NAME":"EARTH","MEAN_MOTION":"15.06404331","TLE_LINE1":"1 47749U 21017AD  22243.34207605  .00000174  00000-0  30570-4 0  9993","EPOCH":"2022-08-31T08:12:35.370720","RCS_SIZE":"MEDIUM","EPHEMERIS_TYPE":"0","MEAN_MOTION_DDOT":"0.0000000000000","REF_FRAME":"TEME","BSTAR":"0.00003057000000","INCLINATION":"53.0537","LAUNCH_DATE":"2021-03-04","TLE_LINE2":"2 47749  53.0537 216.2604 0001551  72.8531 287.2628 15.06404331 83985"}];
